{"type": "FeatureCollection", "features": [{"type": "Feature", "geometry": {"type": "Point", "coordinates": [7.434738699631339, 9.088758799878747]}, "properties": {"Name": "Bus Stop 1 (nan)", "category": "bus_stop"}}, {"type": "Feature", "geometry": {"type": "Point", "coordinates": [7.4318632001266565, 9.117488899892862]}, "properties": {"Name": "Bus Stop 2 (nan)", "category": "bus_stop"}}, {"type": "Feature", "geometry": {"type": "Point", "coordinates": [7.474572100322234, 9.063491800206464]}, "properties": {"Name": "Bus Stop 3 (nan)", "category": "bus_stop"}}, {"type": "Feature", "geometry": {"type": "Point", "coordinates": [7.393972899829521, 8.988563399881059]}, "properties": {"Name": "Bus Stop 4 (Along)", "category": "bus_stop"}}, {"type": "Feature", "geometry": {"type": "Point", "coordinates": [7.373328800383888, 8.977686400107302]}, "properties": {"Name": "Bus Stop 5 (Along)", "category": "bus_stop"}}, {"type": "Feature", "geometry": {"type": "Point", "coordinates": [7.364234700271254, 8.973200699552706]}, "properties": {"Name": "Bus Stop 6 (Along)", "category": "bus_stop"}}, {"type": "Feature", "geometry": {"type": "Point", "coordinates": [7.298159399736562, 8.941788599963957]}, "properties": {"Name": "Bus Stop 7 (Along)", "category": "bus_stop"}}, {"type": "Feature", "geometry": {"type": "Point", "coordinates": [7.453850400175895, 9.066842800055213]}, "properties": {"Name": "Bus Stop 8 (Along)", "category": "bus_stop"}}, {"type": "Feature", "geometry": {"type": "Point", "coordinates": [7.484969999765724, 9.105356700151617]}, "properties": {"Name": "Bus Stop 9 (Along)", "category": "bus_stop"}}, {"type": "Feature", "geometry": {"type": "Point", "coordinates": [7.493321699636795, 9.102270000260376]}, "properties": {"Name": "Bus Stop 10 (Along)", "category": "bus_stop"}}, {"type": "Feature", "geometry": {"type": "Point", "coordinates": [7.4992032999923595, 9.097585000047786]}, "properties": {"Name": "Bus Stop 11 (Along)", "category": "bus_stop"}}, {"type": "Feature", "geometry": {"type": "Point", "coordinates": [7.499976699864874, 9.092241699694739]}, "properties": {"Name": "Bus Stop 12 (Along)", "category": "bus_stop"}}, {"type": "Feature", "geometry": {"type": "Point", "coordinates": [7.495084000326415, 9.085839999816187]}, "properties": {"Name": "Bus Stop 13 (nan)", "category": "bus_stop"}}, {"type": "Feature", "geometry": {"type": "Point", "coordinates": [7.488147100408412, 9.07115520035228]}, "properties": {"Name": "Bus Stop 14 (nan)", "category": "bus_stop"}}, {"type": "Feature", "geometry": {"type": "Point", "coordinates": [7.490420000182894, 9.073394399831727]}, "properties": {"Name": "Bus Stop 15 (nan)", "category": "bus_stop"}}, {"type": "Feature", "geometry": {"type": "Point", "coordinates": [7.491897099771393, 9.074282599962089]}, "properties": {"Name": "Bus Stop 16 (nan)", "category": "bus_stop"}}, {"type": "Feature", "geometry": {"type": "Point", "coordinates": [7.487144400393788, 9.07997569971883]}, "properties": {"Name": "Bus Stop 17 (nan)", "category": "bus_stop"}}, {"type": "Feature", "geometry": {"type": "Point", "coordinates": [7.487177800315294, 9.086449500044466]}, "properties": {"Name": "Bus Stop 18 (nan)", "category": "bus_stop"}}, {"type": "Feature", "geometry": {"type": "Point", "coordinates": [7.479607200312103, 9.088370899797212]}, "properties": {"Name": "Bus Stop 19 (nan)", "category": "bus_stop"}}, {"type": "Feature", "geometry": {"type": "Point", "coordinates": [7.478753400149344, 9.08734459977353]}, "properties": {"Name": "Bus Stop 20 (nan)", "category": "bus_stop"}}, {"type": "Feature", "geometry": {"type": "Point", "coordinates": [7.466296699832867, 9.073441699674731]}, "properties": {"Name": "Bus Stop 21 (nan)", "category": "bus_stop"}}, {"type": "Feature", "geometry": {"type": "Point", "coordinates": [7.469703699566139, 9.079248599643222]}, "properties": {"Name": "Bus Stop 22 (nan)", "category": "bus_stop"}}, {"type": "Feature", "geometry": {"type": "Point", "coordinates": [7.478571700223824, 9.017838300197468]}, "properties": {"Name": "Bus Stop 23 (nan)", "category": "bus_stop"}}, {"type": "Feature", "geometry": {"type": "Point", "coordinates": [7.467833900214373, 9.054692100360171]}, "properties": {"Name": "Bus Stop 24 (nan)", "category": "bus_stop"}}, {"type": "Feature", "geometry": {"type": "Point", "coordinates": [7.466732600329294, 9.060251399882247]}, "properties": {"Name": "Bus Stop 25 (nan)", "category": "bus_stop"}}, {"type": "Feature", "geometry": {"type": "Point", "coordinates": [7.471828599710136, 9.06347719971302]}, "properties": {"Name": "Bus Stop 26 (nan)", "category": "bus_stop"}}, {"type": "Feature", "geometry": {"type": "Point", "coordinates": [7.478452100284244, 9.062851400172008]}, "properties": {"Name": "Bus Stop 27 (nan)", "category": "bus_stop"}}, {"type": "Feature", "geometry": {"type": "Point", "coordinates": [7.444580200216137, 9.068206899828624]}, "properties": {"Name": "Bus Stop 28 (nan)", "category": "bus_stop"}}, {"type": "Feature", "geometry": {"type": "Point", "coordinates": [7.480618299994603, 9.044903300047281]}, "properties": {"Name": "Bus Stop 29 (nan)", "category": "bus_stop"}}, {"type": "Feature", "geometry": {"type": "Point", "coordinates": [7.4856983004362405, 9.024598299871684]}, "properties": {"Name": "Bus Stop 30 (nan)", "category": "bus_stop"}}, {"type": "Feature", "geometry": {"type": "Point", "coordinates": [7.46619469962576, 9.054551500351522]}, "properties": {"Name": "Bus Stop 31 (nan)", "category": "bus_stop"}}, {"type": "Feature", "geometry": {"type": "Point", "coordinates": [7.466349599754267, 9.060029100062991]}, "properties": {"Name": "Bus Stop 32 (nan)", "category": "bus_stop"}}, {"type": "Feature", "geometry": {"type": "Point", "coordinates": [7.471049800308094, 9.064044500153614]}, "properties": {"Name": "Bus Stop 33 (nan)", "category": "bus_stop"}}, {"type": "Feature", "geometry": {"type": "Point", "coordinates": [7.474604000174509, 9.063409899847045]}, "properties": {"Name": "Bus Stop 34 (nan)", "category": "bus_stop"}}, {"type": "Feature", "geometry": {"type": "Point", "coordinates": [7.479171799838753, 9.062094299612284]}, "properties": {"Name": "Bus Stop 35 (nan)", "category": "bus_stop"}}, {"type": "Feature", "geometry": {"type": "Point", "coordinates": [7.4831093995791775, 9.056448200224338]}, "properties": {"Name": "Bus Stop 36 (nan)", "category": "bus_stop"}}]}