{"type": "FeatureCollection", "features": [{"type": "Feature", "geometry": {"type": "Point", "coordinates": [7.527547199643755, 9.051134699806596]}, "properties": {"Name": "MRS", "category": "transit_hub"}}, {"type": "Feature", "geometry": {"type": "Point", "coordinates": [7.522869099929169, 9.049896300074264]}, "properties": {"Name": "nan", "category": "transit_hub"}}, {"type": "Feature", "geometry": {"type": "Point", "coordinates": [7.54373120043472, 9.036246499776214]}, "properties": {"Name": "nan", "category": "transit_hub"}}, {"type": "Feature", "geometry": {"type": "Point", "coordinates": [7.5435717002739135, 9.036514999567604]}, "properties": {"Name": "nan", "category": "transit_hub"}}, {"type": "Feature", "geometry": {"type": "Point", "coordinates": [7.431182800046471, 9.08917930038445]}, "properties": {"Name": "nan", "category": "transit_hub"}}, {"type": "Feature", "geometry": {"type": "Point", "coordinates": [7.430978299609113, 9.117555000063254]}, "properties": {"Name": "nan", "category": "transit_hub"}}, {"type": "Feature", "geometry": {"type": "Point", "coordinates": [7.4546382998179475, 9.117516699735981]}, "properties": {"Name": "nan", "category": "transit_hub"}}, {"type": "Feature", "geometry": {"type": "Point", "coordinates": [7.456512000428705, 9.117483399639235]}, "properties": {"Name": "nan", "category": "transit_hub"}}, {"type": "Feature", "geometry": {"type": "Point", "coordinates": [7.456768300017255, 9.117461699897623]}, "properties": {"Name": "nan", "category": "transit_hub"}}, {"type": "Feature", "geometry": {"type": "Point", "coordinates": [7.483973100378474, 9.054955099898011]}, "properties": {"Name": "nan", "category": "transit_hub"}}, {"type": "Feature", "geometry": {"type": "Point", "coordinates": [7.470798300401454, 9.027418300414299]}, "properties": {"Name": "nan", "category": "transit_hub"}}, {"type": "Feature", "geometry": {"type": "Point", "coordinates": [7.42700300028848, 9.01800200019223]}, "properties": {"Name": "nan", "category": "transit_hub"}}, {"type": "Feature", "geometry": {"type": "Point", "coordinates": [7.424033300396773, 9.015829999854645]}, "properties": {"Name": "nan", "category": "transit_hub"}}, {"type": "Feature", "geometry": {"type": "Point", "coordinates": [7.34265199999018, 8.959242000118284]}, "properties": {"Name": "nan", "category": "transit_hub"}}, {"type": "Feature", "geometry": {"type": "Point", "coordinates": [7.340818900172484, 8.95858229973338]}, "properties": {"Name": "nan", "category": "transit_hub"}}, {"type": "Feature", "geometry": {"type": "Point", "coordinates": [7.260786699746885, 9.11315830001558]}, "properties": {"Name": "nan", "category": "transit_hub"}}, {"type": "Feature", "geometry": {"type": "Point", "coordinates": [7.320485000282917, 9.14055910042219]}, "properties": {"Name": "nan", "category": "transit_hub"}}, {"type": "Feature", "geometry": {"type": "Point", "coordinates": [7.323042000388375, 9.141680000131958]}, "properties": {"Name": "nan", "category": "transit_hub"}}, {"type": "Feature", "geometry": {"type": "Point", "coordinates": [7.324401099931197, 9.141159100212338]}, "properties": {"Name": "nan", "category": "transit_hub"}}, {"type": "Feature", "geometry": {"type": "Point", "coordinates": [7.36335160019654, 9.131130599997215]}, "properties": {"Name": "nan", "category": "transit_hub"}}, {"type": "Feature", "geometry": {"type": "Point", "coordinates": [7.364066699718758, 9.130703299717533]}, "properties": {"Name": "nan", "category": "transit_hub"}}, {"type": "Feature", "geometry": {"type": "Point", "coordinates": [7.36433950006817, 9.130471500359466]}, "properties": {"Name": "nan", "category": "transit_hub"}}, {"type": "Feature", "geometry": {"type": "Point", "coordinates": [7.366859899565026, 9.12872320031553]}, "properties": {"Name": "nan", "category": "transit_hub"}}, {"type": "Feature", "geometry": {"type": "Point", "coordinates": [7.4059567995669235, 9.119354799784217]}, "properties": {"Name": "nan", "category": "transit_hub"}}, {"type": "Feature", "geometry": {"type": "Point", "coordinates": [7.421286000149046, 9.118707000127996]}, "properties": {"Name": "nan", "category": "transit_hub"}}, {"type": "Feature", "geometry": {"type": "Point", "coordinates": [7.092789999659616, 8.938347999760436]}, "properties": {"Name": "nan", "category": "transit_hub"}}, {"type": "Feature", "geometry": {"type": "Point", "coordinates": [7.093466000256591, 8.941131000395403]}, "properties": {"Name": "nan", "category": "transit_hub"}}, {"type": "Feature", "geometry": {"type": "Point", "coordinates": [7.0938325998954115, 8.94087019969999]}, "properties": {"Name": "nan", "category": "transit_hub"}}, {"type": "Feature", "geometry": {"type": "Point", "coordinates": [7.095601999833263, 8.944634000059128]}, "properties": {"Name": "nan", "category": "transit_hub"}}, {"type": "Feature", "geometry": {"type": "Point", "coordinates": [7.098439000260493, 8.947203999864747]}, "properties": {"Name": "nan", "category": "transit_hub"}}, {"type": "Feature", "geometry": {"type": "Point", "coordinates": [7.152164000169167, 9.004143999645905]}, "properties": {"Name": "nan", "category": "transit_hub"}}, {"type": "Feature", "geometry": {"type": "Point", "coordinates": [7.151862999778316, 9.003576999578883]}, "properties": {"Name": "nan", "category": "transit_hub"}}, {"type": "Feature", "geometry": {"type": "Point", "coordinates": [7.21720200017272, 9.088113000314772]}, "properties": {"Name": "nan", "category": "transit_hub"}}, {"type": "Feature", "geometry": {"type": "Point", "coordinates": [7.2174699999410885, 9.089087000264916]}, "properties": {"Name": "nan", "category": "transit_hub"}}, {"type": "Feature", "geometry": {"type": "Point", "coordinates": [7.258008999716043, 9.111778999901016]}, "properties": {"Name": "nan", "category": "transit_hub"}}, {"type": "Feature", "geometry": {"type": "Point", "coordinates": [7.25916270039877, 9.112424199617179]}, "properties": {"Name": "nan", "category": "transit_hub"}}, {"type": "Feature", "geometry": {"type": "Point", "coordinates": [7.262375999653115, 9.116514999767471]}, "properties": {"Name": "nan", "category": "transit_hub"}}, {"type": "Feature", "geometry": {"type": "Point", "coordinates": [7.217719999778744, 9.093785000177691]}, "properties": {"Name": "nan", "category": "transit_hub"}}, {"type": "Feature", "geometry": {"type": "Point", "coordinates": [7.157330000080098, 9.013781999839479]}, "properties": {"Name": "nan", "category": "transit_hub"}}, {"type": "Feature", "geometry": {"type": "Point", "coordinates": [7.19462930010273, 8.984713699877366]}, "properties": {"Name": "nan", "category": "transit_hub"}}, {"type": "Feature", "geometry": {"type": "Point", "coordinates": [7.465145099966609, 9.081821300112958]}, "properties": {"Name": "nan", "category": "transit_hub"}}, {"type": "Feature", "geometry": {"type": "Point", "coordinates": [7.496281399966826, 9.078154300080927]}, "properties": {"Name": "nan", "category": "transit_hub"}}, {"type": "Feature", "geometry": {"type": "Point", "coordinates": [7.456293799719291, 9.066357999821864]}, "properties": {"Name": "nan", "category": "transit_hub"}}, {"type": "Feature", "geometry": {"type": "Point", "coordinates": [7.4692883998400275, 9.06476540030303]}, "properties": {"Name": "nan", "category": "transit_hub"}}, {"type": "Feature", "geometry": {"type": "Point", "coordinates": [7.412103299727802, 9.064966700053224]}, "properties": {"Name": "nan", "category": "transit_hub"}}, {"type": "Feature", "geometry": {"type": "Point", "coordinates": [7.470625000143855, 9.027638299767792]}, "properties": {"Name": "nan", "category": "transit_hub"}}, {"type": "Feature", "geometry": {"type": "Point", "coordinates": [7.456565099999601, 9.066330700001831]}, "properties": {"Name": "nan", "category": "transit_hub"}}, {"type": "Feature", "geometry": {"type": "Point", "coordinates": [7.4758642003727696, 9.063504799906651]}, "properties": {"Name": "nan", "category": "transit_hub"}}, {"type": "Feature", "geometry": {"type": "Point", "coordinates": [7.437502499740811, 9.067234599597175]}, "properties": {"Name": "nan", "category": "transit_hub"}}, {"type": "Feature", "geometry": {"type": "Point", "coordinates": [7.433759099603007, 9.066512200277884]}, "properties": {"Name": "nan", "category": "transit_hub"}}, {"type": "Feature", "geometry": {"type": "Point", "coordinates": [7.466111999769176, 9.081941900098707]}, "properties": {"Name": "Yamoyus Petrol Station", "category": "transit_hub"}}, {"type": "Feature", "geometry": {"type": "Point", "coordinates": [7.46890419956935, 9.064776499735734]}, "properties": {"Name": "nan", "category": "transit_hub"}}, {"type": "Feature", "geometry": {"type": "Point", "coordinates": [7.47599820025697, 9.063240499949202]}, "properties": {"Name": "Oando", "category": "transit_hub"}}, {"type": "Feature", "geometry": {"type": "Point", "coordinates": [7.496375399805038, 9.078217199564188]}, "properties": {"Name": "AP", "category": "transit_hub"}}, {"type": "Feature", "geometry": {"type": "Point", "coordinates": [7.4760055000539785, 9.063222199644816]}, "properties": {"Name": "nan", "category": "transit_hub"}}, {"type": "Feature", "geometry": {"type": "Point", "coordinates": [7.470020500146183, 9.027305500248708]}, "properties": {"Name": "nan", "category": "transit_hub"}}, {"type": "Feature", "geometry": {"type": "Point", "coordinates": [7.4886156004298385, 9.082535299764356]}, "properties": {"Name": "F&O Fuel Station", "category": "transit_hub"}}, {"type": "Feature", "geometry": {"type": "Point", "coordinates": [7.496054199741763, 9.078367899858746]}, "properties": {"Name": "Forte Oil", "category": "transit_hub"}}, {"type": "Feature", "geometry": {"type": "Point", "coordinates": [7.492160299858189, 9.106722899842001]}, "properties": {"Name": "nan", "category": "transit_hub"}}, {"type": "Feature", "geometry": {"type": "Point", "coordinates": [7.467947800251023, 9.055228500095268]}, "properties": {"Name": "NNPC", "category": "transit_hub"}}, {"type": "Feature", "geometry": {"type": "Point", "coordinates": [7.464566100245584, 9.082690299717644]}, "properties": {"Name": "Nipco", "category": "transit_hub"}}, {"type": "Feature", "geometry": {"type": "Point", "coordinates": [7.239532699874718, 8.879063099582448]}, "properties": {"Name": "TotalEnergies", "category": "transit_hub"}}, {"type": "Feature", "geometry": {"type": "Point", "coordinates": [7.457336800153447, 9.086260699971364]}, "properties": {"Name": "Mobil", "category": "transit_hub"}}, {"type": "Feature", "geometry": {"type": "Point", "coordinates": [7.4596370995727295, 9.085988799843301]}, "properties": {"Name": "Emadeb Energy", "category": "transit_hub"}}, {"type": "Feature", "geometry": {"type": "Point", "coordinates": [7.491468749083687, 9.12732179846226]}, "properties": {"Name": "SHAFFA", "category": "transit_hub"}}, {"type": "Feature", "geometry": {"type": "Point", "coordinates": [7.2404808811882155, 8.878795507206915]}, "properties": {"Name": "nan", "category": "transit_hub"}}]}